start=new Date('2022-02-11T00:00:00.000Z').valueOf();
sats=[{"COUNTRY_CODE":"US","REV_AT_EPOCH":"5655","RA_OF_ASC_NODE":"175.4957","NORAD_CAT_ID":"47632","PERIOD":"95.593","MEAN_MOTION_DOT":"0.00005595","TLE_LINE1":"1 47632U 21012N   22041.91667824  .00005595  00000-0  39426-3 0  9991","EPHEMERIS_TYPE":"0","OBJECT_NAME":"STARLINK-1992","DECAY_DATE":null,"ARG_OF_PERICENTER":"59.4218","GP_ID":"195687439","CLASSIFICATION_TYPE":"U","MEAN_ELEMENT_THEORY":"SGP4","SEMIMAJOR_AXIS":"6925.367","ELEMENT_SET_NO":"999","OBJECT_ID":"2021-012N","TIME_SYSTEM":"UTC","FILE":"3296909","INCLINATION":"53.0551","EPOCH":"2022-02-10T22:00:00.999936","LAUNCH_DATE":"2021-02-16","BSTAR":"0.00039426000000","MEAN_ANOMALY":"323.9883","OBJECT_TYPE":"PAYLOAD","TLE_LINE2":"2 47632  53.0551 175.4957 0001331  59.4218 323.9883 15.06393853 56558","SITE":"AFETR","REF_FRAME":"TEME","MEAN_MOTION_DDOT":"0.0000000000000","RCS_SIZE":"LARGE","PERIAPSIS":"546.311","ECCENTRICITY":"0.00013310","APOAPSIS":"548.154","CENTER_NAME":"EARTH","MEAN_MOTION":"15.06393853"},{"ECCENTRICITY":"0.00018000","MEAN_MOTION_DDOT":"0.0000000000000","RCS_SIZE":"LARGE","PERIAPSIS":"545.968","CENTER_NAME":"EARTH","MEAN_MOTION":"15.06399667","APOAPSIS":"548.461","LAUNCH_DATE":"2021-02-16","BSTAR":"0.00026486000000","EPOCH":"2022-02-10T22:17:06.860832","MEAN_ANOMALY":"301.0548","OBJECT_TYPE":"PAYLOAD","TLE_LINE2":"2 47633  53.0535 270.4357 0001800  59.0618 301.0548 15.06399667 55768","SITE":"AFETR","REF_FRAME":"TEME","ARG_OF_PERICENTER":"59.0618","GP_ID":"195714121","EPHEMERIS_TYPE":"0","OBJECT_NAME":"STARLINK-2009","DECAY_DATE":null,"TIME_SYSTEM":"UTC","FILE":"3297147","INCLINATION":"53.0535","CLASSIFICATION_TYPE":"U","MEAN_ELEMENT_THEORY":"SGP4","ELEMENT_SET_NO":"999","SEMIMAJOR_AXIS":"6925.350","OBJECT_ID":"2021-012P","COUNTRY_CODE":"US","REV_AT_EPOCH":"5576","NORAD_CAT_ID":"47633","PERIOD":"95.592","TLE_LINE1":"1 47633U 21012P   22041.92855163  .00003666  00000-0  26486-3 0  9997","MEAN_MOTION_DOT":"0.00003666","RA_OF_ASC_NODE":"270.4357"},{"LAUNCH_DATE":"2021-02-16","BSTAR":"0.00013966000000","EPOCH":"2022-02-10T21:45:14.758848","OBJECT_TYPE":"PAYLOAD","MEAN_ANOMALY":"275.4515","REF_FRAME":"TEME","SITE":"AFETR","TLE_LINE2":"2 47634  53.0528 270.5388 0001471  84.6642 275.4515 15.06404315 55733","ECCENTRICITY":"0.00014710","MEAN_MOTION_DDOT":"0.0000000000000","PERIAPSIS":"546.182","RCS_SIZE":"LARGE","CENTER_NAME":"EARTH","MEAN_MOTION":"15.06404315","APOAPSIS":"548.219","COUNTRY_CODE":"US","REV_AT_EPOCH":"5573","PERIOD":"95.592","NORAD_CAT_ID":"47634","MEAN_MOTION_DOT":"0.00001800","TLE_LINE1":"1 47634U 21012Q   22041.90642082  .00001800  00000-0  13966-3 0  9997","RA_OF_ASC_NODE":"270.5388","ARG_OF_PERICENTER":"84.6642","GP_ID":"195714873","EPHEMERIS_TYPE":"0","DECAY_DATE":null,"OBJECT_NAME":"STARLINK-2010","FILE":"3297147","TIME_SYSTEM":"UTC","INCLINATION":"53.0528","ELEMENT_SET_NO":"999","SEMIMAJOR_AXIS":"6925.335","CLASSIFICATION_TYPE":"U","MEAN_ELEMENT_THEORY":"SGP4","OBJECT_ID":"2021-012Q"},{"TLE_LINE2":"2 47635  53.0562 175.6132 0001351  90.6864 269.4280 15.06399715 57061","REF_FRAME":"TEME","SITE":"AFETR","MEAN_ANOMALY":"269.4280","OBJECT_TYPE":"PAYLOAD","BSTAR":"0.00002054500000","LAUNCH_DATE":"2021-02-16","EPOCH":"2022-02-10T20:46:11.951904","MEAN_MOTION":"15.06399715","CENTER_NAME":"EARTH","APOAPSIS":"548.150","ECCENTRICITY":"0.00013510","PERIAPSIS":"546.279","RCS_SIZE":"LARGE","MEAN_MOTION_DDOT":"0.0000000000000","TLE_LINE1":"1 47635U 21012R   22041.86541611  .00000025  00000-0  20545-4 0  9999","MEAN_MOTION_DOT":"0.00000025","NORAD_CAT_ID":"47635","PERIOD":"95.592","RA_OF_ASC_NODE":"175.6132","REV_AT_EPOCH":"5706","COUNTRY_CODE":"US","INCLINATION":"53.0562","TIME_SYSTEM":"UTC","FILE":"3297147","OBJECT_ID":"2021-012R","CLASSIFICATION_TYPE":"U","MEAN_ELEMENT_THEORY":"SGP4","ELEMENT_SET_NO":"999","SEMIMAJOR_AXIS":"6925.349","GP_ID":"195714623","ARG_OF_PERICENTER":"90.6864","DECAY_DATE":null,"OBJECT_NAME":"STARLINK-2012","EPHEMERIS_TYPE":"0"},{"COUNTRY_CODE":"US","REV_AT_EPOCH":"5601","PERIOD":"95.590","NORAD_CAT_ID":"47636","MEAN_MOTION_DOT":"0.00011754","TLE_LINE1":"1 47636U 21012S   22041.89353107  .00011754  00000-0  80593-3 0  9993","RA_OF_ASC_NODE":"250.5917","ARG_OF_PERICENTER":"143.5724","GP_ID":"195713372","EPHEMERIS_TYPE":"0","OBJECT_NAME":"STARLINK-2013","DECAY_DATE":null,"FILE":"3297147","TIME_SYSTEM":"UTC","INCLINATION":"53.0546","SEMIMAJOR_AXIS":"6925.249","ELEMENT_SET_NO":"999","MEAN_ELEMENT_THEORY":"SGP4","CLASSIFICATION_TYPE":"U","OBJECT_ID":"2021-012S","LAUNCH_DATE":"2021-02-16","BSTAR":"0.00080593000000","EPOCH":"2022-02-10T21:26:41.084448","OBJECT_TYPE":"PAYLOAD","MEAN_ANOMALY":"216.5323","REF_FRAME":"TEME","SITE":"AFETR","TLE_LINE2":"2 47636  53.0546 250.5917 0000851 143.5724 216.5323 15.06432464 56019","ECCENTRICITY":"0.00008510","MEAN_MOTION_DDOT":"0.0000000000000","RCS_SIZE":"LARGE","PERIAPSIS":"546.525","CENTER_NAME":"EARTH","MEAN_MOTION":"15.06432464","APOAPSIS":"547.703"},{"OBJECT_ID":"2021-012T","CLASSIFICATION_TYPE":"U","MEAN_ELEMENT_THEORY":"SGP4","ELEMENT_SET_NO":"999","SEMIMAJOR_AXIS":"6925.366","INCLINATION":"53.0547","TIME_SYSTEM":"UTC","FILE":"3297147","DECAY_DATE":null,"OBJECT_NAME":"STARLINK-2014","EPHEMERIS_TYPE":"0","GP_ID":"195713622","ARG_OF_PERICENTER":"71.7655","RA_OF_ASC_NODE":"250.7252","TLE_LINE1":"1 47637U 21012T   22041.86405570  .00000590  00000-0  58497-4 0  9998","MEAN_MOTION_DOT":"0.00000590","NORAD_CAT_ID":"47637","PERIOD":"95.592","REV_AT_EPOCH":"5602","COUNTRY_CODE":"US","APOAPSIS":"548.246","MEAN_MOTION":"15.06394335","CENTER_NAME":"EARTH","PERIAPSIS":"546.216","RCS_SIZE":"LARGE","MEAN_MOTION_DDOT":"0.0000000000000","ECCENTRICITY":"0.00014660","TLE_LINE2":"2 47637  53.0547 250.7252 0001466  71.7655 288.3493 15.06394335 56023","SITE":"AFETR","REF_FRAME":"TEME","MEAN_ANOMALY":"288.3493","OBJECT_TYPE":"PAYLOAD","EPOCH":"2022-02-10T20:44:14.412480","BSTAR":"0.00005849700000","LAUNCH_DATE":"2021-02-16"},{"MEAN_MOTION":"15.06402542","CENTER_NAME":"EARTH","APOAPSIS":"548.830","ECCENTRICITY":"0.00023460","RCS_SIZE":"LARGE","PERIAPSIS":"545.581","MEAN_MOTION_DDOT":"0.0000000000000","REF_FRAME":"TEME","SITE":"AFETR","TLE_LINE2":"2 47638  53.0496 176.6777 0002346  95.3052 264.8204 15.06402542 57015","OBJECT_TYPE":"PAYLOAD","MEAN_ANOMALY":"264.8204","BSTAR":"0.00003550600000","LAUNCH_DATE":"2021-02-16","EPOCH":"2022-02-10T15:54:16.067808","INCLINATION":"53.0496","FILE":"3297147","TIME_SYSTEM":"UTC","OBJECT_ID":"2021-012U","ELEMENT_SET_NO":"999","SEMIMAJOR_AXIS":"6925.341","MEAN_ELEMENT_THEORY":"SGP4","CLASSIFICATION_TYPE":"U","GP_ID":"195714374","ARG_OF_PERICENTER":"95.3052","DECAY_DATE":null,"OBJECT_NAME":"STARLINK-2015","EPHEMERIS_TYPE":"0","TLE_LINE1":"1 47638U 21012U   22041.66268597  .00000247  00000-0  35506-4 0  9998","MEAN_MOTION_DOT":"0.00000247","PERIOD":"95.592","NORAD_CAT_ID":"47638","RA_OF_ASC_NODE":"176.6777","REV_AT_EPOCH":"5701","COUNTRY_CODE":"US"},{"MEAN_MOTION_DDOT":"0.0000000000000","RCS_SIZE":"LARGE","PERIAPSIS":"546.004","ECCENTRICITY":"0.00017010","APOAPSIS":"548.360","CENTER_NAME":"EARTH","MEAN_MOTION":"15.06410286","EPOCH":"2022-02-10T20:12:23.074272","LAUNCH_DATE":"2021-02-16","BSTAR":"0.00037105000000","OBJECT_TYPE":"PAYLOAD","MEAN_ANOMALY":"290.2130","SITE":"AFETR","REF_FRAME":"TEME","TLE_LINE2":"2 47639  53.0542 250.8165 0001701  69.9042 290.2130 15.06410286 55994","EPHEMERIS_TYPE":"0","DECAY_DATE":null,"OBJECT_NAME":"STARLINK-2016","ARG_OF_PERICENTER":"69.9042","GP_ID":"195715123","SEMIMAJOR_AXIS":"6925.317","ELEMENT_SET_NO":"999","CLASSIFICATION_TYPE":"U","MEAN_ELEMENT_THEORY":"SGP4","OBJECT_ID":"2021-012V","FILE":"3297147","TIME_SYSTEM":"UTC","INCLINATION":"53.0542","COUNTRY_CODE":"US","REV_AT_EPOCH":"5599","RA_OF_ASC_NODE":"250.8165","PERIOD":"95.591","NORAD_CAT_ID":"47639","MEAN_MOTION_DOT":"0.00005251","TLE_LINE1":"1 47639U 21012V   22041.84193373  .00005251  00000-0  37105-3 0  9994"},{"EPOCH":"2022-02-10T21:39:56.941632","LAUNCH_DATE":"2021-02-16","BSTAR":"0.00010315000000","MEAN_ANOMALY":"296.6605","OBJECT_TYPE":"PAYLOAD","TLE_LINE2":"2 47640  53.0536 270.5538 0001433  63.4531 296.6605 15.06416825 55741","SITE":"AFETR","REF_FRAME":"TEME","MEAN_MOTION_DDOT":"0.0000000000000","PERIAPSIS":"546.170","RCS_SIZE":"LARGE","ECCENTRICITY":"0.00014330","APOAPSIS":"548.154","CENTER_NAME":"EARTH","MEAN_MOTION":"15.06416825","COUNTRY_CODE":"US","REV_AT_EPOCH":"5574","RA_OF_ASC_NODE":"270.5538","NORAD_CAT_ID":"47640","PERIOD":"95.591","MEAN_MOTION_DOT":"0.00001256","TLE_LINE1":"1 47640U 21012W   22041.90274238  .00001256  00000-0  10315-3 0  9998","EPHEMERIS_TYPE":"0","OBJECT_NAME":"STARLINK-2018","DECAY_DATE":null,"ARG_OF_PERICENTER":"63.4531","GP_ID":"195713872","MEAN_ELEMENT_THEORY":"SGP4","CLASSIFICATION_TYPE":"U","ELEMENT_SET_NO":"999","SEMIMAJOR_AXIS":"6925.297","OBJECT_ID":"2021-012W","TIME_SYSTEM":"UTC","FILE":"3297147","INCLINATION":"53.0536"},{"SITE":"AFETR","REF_FRAME":"TEME","TLE_LINE2":"2 47641  53.0537 175.4862 0001327  70.5806 307.7304 15.06417332  3592","OBJECT_TYPE":"PAYLOAD","MEAN_ANOMALY":"307.7304","EPOCH":"2022-02-10T22:00:00.999936","BSTAR":"-0.00265860000000","LAUNCH_DATE":"2021-02-16","APOAPSIS":"548.079","MEAN_MOTION":"15.06417332","CENTER_NAME":"EARTH","PERIAPSIS":"546.241","RCS_SIZE":"LARGE","MEAN_MOTION_DDOT":"0.0000000000000","ECCENTRICITY":"0.00013270","RA_OF_ASC_NODE":"175.4862","MEAN_MOTION_DOT":"-0.00039680","TLE_LINE1":"1 47641U 21012X   22041.91667824 -.00039680  00000-0 -26586-2 0  9997","PERIOD":"95.591","NORAD_CAT_ID":"47641","REV_AT_EPOCH":"359","COUNTRY_CODE":"US","OBJECT_ID":"2021-012X","ELEMENT_SET_NO":"999","SEMIMAJOR_AXIS":"6925.295","CLASSIFICATION_TYPE":"U","MEAN_ELEMENT_THEORY":"SGP4","INCLINATION":"53.0537","FILE":"3297147","TIME_SYSTEM":"UTC","DECAY_DATE":null,"OBJECT_NAME":"STARLINK-2019","EPHEMERIS_TYPE":"0","GP_ID":"195714122","ARG_OF_PERICENTER":"70.5806"}];
